[{"OBJECT_NAME":"KUIPER-00152","OBJECT_ID":"2025-217L","EPOCH":"2026-03-09T02:08:04.930944","MEAN_MOTION":14.79907018,"ECCENTRICITY":5.576e-5,"INCLINATION":51.902,"RA_OF_ASC_NODE":33.2511,"ARG_OF_PERICENTER":92.7348,"MEAN_ANOMALY":267.3678,"EPHEMERIS_TYPE":0,"CLASSIFICATION_TYPE":"U","NORAD_CAT_ID":65772,"ELEMENT_SET_NO":999,"REV_AT_EPOCH":2496,"BSTAR":0.00052321714,"MEAN_MOTION_DOT":3.767e-5,"MEAN_MOTION_DDOT":0},{"OBJECT_NAME":"NOAA 16 DEB","OBJECT_ID":"2000-055CP","EPOCH":"2026-03-09T03:31:48.447264","MEAN_MOTION":14.79605688,"ECCENTRICITY":0.00245733,"INCLINATION":98.9435,"RA_OF_ASC_NODE":325.0039,"ARG_OF_PERICENTER":268.5698,"MEAN_ANOMALY":91.2696,"EPHEMERIS_TYPE":0,"CLASSIFICATION_TYPE":"U","NORAD_CAT_ID":41156,"ELEMENT_SET_NO":999,"REV_AT_EPOCH":53795,"BSTAR":0.0040082675,"MEAN_MOTION_DOT":0.00030255,"MEAN_MOTION_DDOT":0}]
